*******************************************************************************
Ephemeris / WWW_USER Mon Mar 24 10:35:38 2025 Pasadena, USA      / Horizons    
*******************************************************************************
Target body name: 62412 (2000 SY178)              {source: JPL#46}
Center body name: Earth (399)                     {source: DE441}
Center-site name: Mauna Kea
*******************************************************************************
Start time      : A.D. 2018-Aug-04 05:07:00.0000 UT      
Stop  time      : A.D. 2018-Aug-04 15:49:00.0000 UT      
Step-size       : 1 minutes
*******************************************************************************
Target pole/equ : undefined
Target radii    : 5.187 km                                                     
Center geodetic : 204.5278, 19.8260847, 4.21024   {E-lon(deg),Lat(deg),Alt(km)}
Center cylindric: 204.5278, 6006.35451, 2151.0229 {E-lon(deg),Dxy(km),Dz(km)}
Center pole/equ : ITRF93                          {East-longitude positive}
Center radii    : 6378.137, 6378.137, 6356.752 km {Equator_a, b, pole_c}       
Target primary  : Sun
Vis. interferer : MOON (R_eq= 1737.400) km        {source: DE441}
Rel. light bend : Sun                             {source: DE441}
Rel. lght bnd GM: 1.3271E+11 km^3/s^2                                          
Small-body perts: Yes                             {source: SB441-N16}
Atmos refraction: NO (AIRLESS)
RA format       : HMS
Time format     : CAL 
Calendar mode   : Mixed Julian/Gregorian
RTS-only print  : NO       
EOP file        : eop.250321.p250617                                           
EOP coverage    : DATA-BASED 1962-JAN-20 TO 2025-MAR-21. PREDICTS-> 2025-JUN-16
Units conversion: 1 au= 149597870.700 km, c= 299792.458 km/s, 1 day= 86400.0 s 
Table cut-offs 1: Elevation (-90.0deg=NO ),Airmass (>38.000=NO), Daylight (YES)
Table cut-offs 2: Solar elongation (  0.0,180.0=NO ),Local Hour Angle( 0.0=NO )
Table cut-offs 3: RA/DEC angular rate (     0.0=NO )                           
*******************************************************************************
Initial IAU76/J2000 heliocentric ecliptic osculating elements (au, days, deg.):
  EPOCH=  2458170.5 ! 2018-Feb-21.00 (TDB)         Residual RMS= .27602        
   EC= .08138541630493452  QR= 2.896136740642169   TP= 2458420.7194902785      
   OM= 329.1508619589129   W=  163.0731028483118   IN= 4.736237123453259       
  Equivalent ICRF heliocentric cartesian coordinates (au, au/d):
   X= 4.513940497926217E-01  Y= 2.603132519717001E+00  Z= 1.377127424929858E+00
  VX=-1.018381435292277E-02 VY= 1.034394081524039E-03 VZ= 5.207836918344824E-05
Asteroid physical parameters (km, seconds, rotational period in hours):        
   GM= n.a.                RAD= 5.187              ROTPER= 3.33                
   H= 13.88                G= .150                 B-V= n.a.                   
                           ALBEDO= .065            STYP= n.a.                  
*******************************************************************************
 Date__(UT)__HR:MN     R.A._________(ICRF)_________DEC
******************************************************
$$SOE
 2018-Aug-04 07:10     08 05 55.332960 +22 21 09.58956
 2018-Aug-04 07:11     08 05 55.403165 +22 21 09.35925
 2018-Aug-04 07:12     08 05 55.473371 +22 21 09.12895
 2018-Aug-04 07:13     08 05 55.543579 +22 21 08.89867
 2018-Aug-04 07:14     08 05 55.613789 +22 21 08.66839
 2018-Aug-04 07:15     08 05 55.684000 +22 21 08.43813
 2018-Aug-04 07:16     08 05 55.754213 +22 21 08.20787
 2018-Aug-04 07:17     08 05 55.824428 +22 21 07.97763
 2018-Aug-04 07:18     08 05 55.894644 +22 21 07.74740
 2018-Aug-04 07:19     08 05 55.964862 +22 21 07.51718
 2018-Aug-04 07:20     08 05 56.035081 +22 21 07.28697
 2018-Aug-04 07:21     08 05 56.105302 +22 21 07.05677
 2018-Aug-04 07:22     08 05 56.175525 +22 21 06.82658
 2018-Aug-04 07:23     08 05 56.245749 +22 21 06.59641
 2018-Aug-04 07:24     08 05 56.315975 +22 21 06.36624
 2018-Aug-04 07:25     08 05 56.386202 +22 21 06.13609
 2018-Aug-04 07:26     08 05 56.456431 +22 21 05.90595
 2018-Aug-04 07:27     08 05 56.526661 +22 21 05.67582
 2018-Aug-04 07:28     08 05 56.596892 +22 21 05.44570
 2018-Aug-04 07:29     08 05 56.667126 +22 21 05.21559
 2018-Aug-04 07:30     08 05 56.737360 +22 21 04.98550
 2018-Aug-04 07:31     08 05 56.807596 +22 21 04.75541
 2018-Aug-04 07:32     08 05 56.877834 +22 21 04.52534
 2018-Aug-04 07:33     08 05 56.948073 +22 21 04.29528
 2018-Aug-04 07:34     08 05 57.018314 +22 21 04.06523
 2018-Aug-04 07:35     08 05 57.088555 +22 21 03.83519
 2018-Aug-04 07:36     08 05 57.158799 +22 21 03.60517
 2018-Aug-04 07:37     08 05 57.229043 +22 21 03.37515
 2018-Aug-04 07:38     08 05 57.299289 +22 21 03.14515
 2018-Aug-04 07:39     08 05 57.369537 +22 21 02.91516
 2018-Aug-04 07:40     08 05 57.439786 +22 21 02.68518
 2018-Aug-04 07:41     08 05 57.510036 +22 21 02.45522
 2018-Aug-04 07:42     08 05 57.580287 +22 21 02.22526
 2018-Aug-04 07:43     08 05 57.650540 +22 21 01.99532
 2018-Aug-04 07:44     08 05 57.720794 +22 21 01.76539
 2018-Aug-04 07:45     08 05 57.791050 +22 21 01.53547
 2018-Aug-04 07:46     08 05 57.861307 +22 21 01.30556
 2018-Aug-04 07:47     08 05 57.931565 +22 21 01.07567
 2018-Aug-04 07:48     08 05 58.001824 +22 21 00.84579
 2018-Aug-04 07:49     08 05 58.072085 +22 21 00.61592
 2018-Aug-04 07:50     08 05 58.142346 +22 21 00.38606
 2018-Aug-04 07:51     08 05 58.212610 +22 21 00.15622
 2018-Aug-04 07:52     08 05 58.282874 +22 20 59.92638
 2018-Aug-04 07:53     08 05 58.353139 +22 20 59.69656
 2018-Aug-04 07:54     08 05 58.423406 +22 20 59.46675
 2018-Aug-04 07:55     08 05 58.493674 +22 20 59.23696
 2018-Aug-04 07:56     08 05 58.563943 +22 20 59.00717
 2018-Aug-04 07:57     08 05 58.634214 +22 20 58.77740
 2018-Aug-04 07:58     08 05 58.704485 +22 20 58.54764
 2018-Aug-04 07:59     08 05 58.774758 +22 20 58.31790
 2018-Aug-04 08:00     08 05 58.845031 +22 20 58.08816
 2018-Aug-04 08:01     08 05 58.915306 +22 20 57.85844
 2018-Aug-04 08:02     08 05 58.985582 +22 20 57.62873
 2018-Aug-04 08:03     08 05 59.055859 +22 20 57.39903
 2018-Aug-04 08:04     08 05 59.126138 +22 20 57.16935
 2018-Aug-04 08:05     08 05 59.196417 +22 20 56.93968
 2018-Aug-04 08:06     08 05 59.266697 +22 20 56.71002
 2018-Aug-04 08:07     08 05 59.336979 +22 20 56.48037
 2018-Aug-04 08:08     08 05 59.407261 +22 20 56.25074
 2018-Aug-04 08:09     08 05 59.477544 +22 20 56.02112
 2018-Aug-04 08:10     08 05 59.547829 +22 20 55.79151
 2018-Aug-04 08:11     08 05 59.618114 +22 20 55.56192
 2018-Aug-04 08:12     08 05 59.688401 +22 20 55.33234
 2018-Aug-04 08:13     08 05 59.758688 +22 20 55.10277
 2018-Aug-04 08:14     08 05 59.828977 +22 20 54.87321
 2018-Aug-04 08:15     08 05 59.899266 +22 20 54.64367
 2018-Aug-04 08:16     08 05 59.969557 +22 20 54.41413
 2018-Aug-04 08:17     08 06 00.039848 +22 20 54.18462
 2018-Aug-04 08:18     08 06 00.110140 +22 20 53.95511
 2018-Aug-04 08:19     08 06 00.180433 +22 20 53.72562
 2018-Aug-04 08:20     08 06 00.250727 +22 20 53.49614
 2018-Aug-04 08:21     08 06 00.321022 +22 20 53.26668
 2018-Aug-04 08:22     08 06 00.391318 +22 20 53.03722
 2018-Aug-04 08:23     08 06 00.461615 +22 20 52.80778
 2018-Aug-04 08:24     08 06 00.531912 +22 20 52.57836
 2018-Aug-04 08:25     08 06 00.602210 +22 20 52.34894
 2018-Aug-04 08:26     08 06 00.672510 +22 20 52.11954
 2018-Aug-04 08:27     08 06 00.742810 +22 20 51.89015
 2018-Aug-04 08:28     08 06 00.813110 +22 20 51.66078
 2018-Aug-04 08:29     08 06 00.883412 +22 20 51.43142
 2018-Aug-04 08:30     08 06 00.953714 +22 20 51.20207
 2018-Aug-04 08:31     08 06 01.024017 +22 20 50.97274
 2018-Aug-04 08:32     08 06 01.094321 +22 20 50.74342
 2018-Aug-04 08:33     08 06 01.164626 +22 20 50.51411
 2018-Aug-04 08:34     08 06 01.234931 +22 20 50.28481
 2018-Aug-04 08:35     08 06 01.305237 +22 20 50.05553
 2018-Aug-04 08:36     08 06 01.375544 +22 20 49.82626
 2018-Aug-04 08:37     08 06 01.445852 +22 20 49.59701
 2018-Aug-04 08:38     08 06 01.516160 +22 20 49.36777
 2018-Aug-04 08:39     08 06 01.586469 +22 20 49.13854
 2018-Aug-04 08:40     08 06 01.656778 +22 20 48.90932
 2018-Aug-04 08:41     08 06 01.727088 +22 20 48.68012
 2018-Aug-04 08:42     08 06 01.797399 +22 20 48.45093
 2018-Aug-04 08:43     08 06 01.867710 +22 20 48.22176
 2018-Aug-04 08:44     08 06 01.938022 +22 20 47.99260
 2018-Aug-04 08:45     08 06 02.008335 +22 20 47.76345
 2018-Aug-04 08:46     08 06 02.078648 +22 20 47.53432
 2018-Aug-04 08:47     08 06 02.148962 +22 20 47.30520
 2018-Aug-04 08:48     08 06 02.219276 +22 20 47.07609
 2018-Aug-04 08:49     08 06 02.289591 +22 20 46.84699
 2018-Aug-04 08:50     08 06 02.359906 +22 20 46.61791
 2018-Aug-04 08:51     08 06 02.430222 +22 20 46.38885
 2018-Aug-04 08:52     08 06 02.500538 +22 20 46.15979
 2018-Aug-04 08:53     08 06 02.570855 +22 20 45.93076
 2018-Aug-04 08:54     08 06 02.641172 +22 20 45.70173
 2018-Aug-04 08:55     08 06 02.711490 +22 20 45.47272
 2018-Aug-04 08:56     08 06 02.781808 +22 20 45.24372
 2018-Aug-04 08:57     08 06 02.852127 +22 20 45.01473
 2018-Aug-04 08:58     08 06 02.922446 +22 20 44.78576
 2018-Aug-04 08:59     08 06 02.992766 +22 20 44.55680
 2018-Aug-04 09:00     08 06 03.063086 +22 20 44.32786
 2018-Aug-04 09:01     08 06 03.133406 +22 20 44.09893
 2018-Aug-04 09:02     08 06 03.203727 +22 20 43.87001
 2018-Aug-04 09:03     08 06 03.274048 +22 20 43.64111
 2018-Aug-04 09:04     08 06 03.344369 +22 20 43.41222
 2018-Aug-04 09:05     08 06 03.414691 +22 20 43.18334
 2018-Aug-04 09:06     08 06 03.485013 +22 20 42.95448
 2018-Aug-04 09:07     08 06 03.555336 +22 20 42.72563
 2018-Aug-04 09:08     08 06 03.625658 +22 20 42.49680
 2018-Aug-04 09:09     08 06 03.695981 +22 20 42.26798
 2018-Aug-04 09:10     08 06 03.766305 +22 20 42.03917
 2018-Aug-04 09:11     08 06 03.836628 +22 20 41.81038
 2018-Aug-04 09:12     08 06 03.906952 +22 20 41.58160
